JY1SAT (JO-97)          
1 43803U 18099AX  26068.68634132  .00017774  00000+0  60804-3 0  9996
2 43803  97.4249 131.3625 0004723 256.6795 103.3919 15.30302628398390
STARLINK-32432          
1 61257U 24175Q   26068.62795019 -.00001484  00000+0 -37980-4 0  9990
2 61257  53.1597 194.3614 0000972  61.6966 298.4133 15.30202075 81445
